STARLINK-31670          
1 59490U 24071G   26068.16467411  .00001330  00000+0  57863-4 0  9992
2 59490  42.9994 354.1263 0000412 293.6576  66.4232 15.27554228107995
FLOCK 4G-21             
1 62651U 25009AU  26068.19487675  .00013648  00000+0  49619-3 0  9998
2 62651  97.4032 151.1274 0000465 329.5782  30.5431 15.28381075 63677
